[{"OBJECT_NAME":"OBJECT B","OBJECT_ID":"2024-203B","EPOCH":"2026-03-09T23:52:52.928256","MEAN_MOTION":15.27506959,"ECCENTRICITY":0.00103904,"INCLINATION":97.4268,"RA_OF_ASC_NODE":139.5887,"ARG_OF_PERICENTER":321.1475,"MEAN_ANOMALY":38.9016,"EPHEMERIS_TYPE":0,"CLASSIFICATION_TYPE":"U","NORAD_CAT_ID":61870,"ELEMENT_SET_NO":999,"REV_AT_EPOCH":7381,"BSTAR":0.00063263842,"MEAN_MOTION_DOT":0.00016997,"MEAN_MOTION_DDOT":0},{"OBJECT_NAME":"STARLINK-35518","OBJECT_ID":"2025-243X","EPOCH":"2026-03-09T21:20:37.354272","MEAN_MOTION":15.30210079,"ECCENTRICITY":7.045e-5,"INCLINATION":53.1593,"RA_OF_ASC_NODE":244.3763,"ARG_OF_PERICENTER":76.0193,"MEAN_ANOMALY":284.0886,"EPHEMERIS_TYPE":0,"CLASSIFICATION_TYPE":"U","NORAD_CAT_ID":66197,"ELEMENT_SET_NO":999,"REV_AT_EPOCH":2068,"BSTAR":0.001093018,"MEAN_MOTION_DOT":0.00032163,"MEAN_MOTION_DDOT":0}]
